     2              NAVIGATION DATA                         RINEX VERSION / TYPE
CCRINEXN V1.6.0 UX  CDDIS               01-MAY-10 02:51     PGM / RUN BY / DATE 
IGS BROADCAST EPHEMERIS FILE                                COMMENT             
    0.9313E-08  0.1490E-07 -0.5960E-07 -0.1192E-06          ION ALPHA           
    0.8806E+05  0.4915E+05 -0.1311E+06 -0.3277E+06          ION BETA            
    0.279396772385E-08 0.266453525910E-14    61440     1582 DELTA-UTC: A0,A1,T,W
    15                                                      LEAP SECONDS        
                                                            END OF HEADER       
 7 10  4 30 10  0  0.0-0.242143869400E-07-0.341060513165E-12 0.000000000000E+00
    0.230000000000E+02-0.123281250000E+03 0.400873840862E-08 0.311472724416E+01
   -0.629760324955E-05 0.341645069420E-02 0.838004052639E-05 0.515372033691E+04
    0.468000000000E+06-0.502914190292E-07 0.301316496989E+01 0.372529029846E-08
    0.971668134312E+00 0.222312500000E+03 0.304064096914E+01-0.777639534665E-08
   -0.675028117631E-10 0.100000000000E+01 0.158100000000E+04 0.000000000000E+00
    0.200000000000E+01 0.000000000000E+00-0.102445483208E-07 0.230000000000E+02
    0.460800000000E+06 0.000000000000E+00 0.000000000000E+00 0.000000000000E+00
 8 10  4 30 10  0  0.0 0.516837462783E-05 0.227373675443E-12 0.000000000000E+00
    0.220000000000E+02-0.127156250000E+03 0.346871591451E-08 0.248167921867E+01
   -0.648014247417E-05 0.110305326525E-01 0.915117561817E-05 0.515370111656E+04
    0.468000000000E+06-0.173225998878E-06 0.308047387022E+01 0.134110450745E-06
    0.993054737059E+00 0.219843750000E+03 0.309712441758E+01-0.747602569219E-08
   -0.112861844006E-09 0.100000000000E+01 0.158100000000E+04 0.000000000000E+00
    0.200000000000E+01 0.000000000000E+00-0.372529029846E-08 0.220000000000E+02
    0.463410000000E+06 0.000000000000E+00 0.000000000000E+00 0.000000000000E+00
 9 10  4 30 10  0  0.0 0.376347452402E-05 0.216004991671E-11 0.000000000000E+00
    0.810000000000E+02-0.159937500000E+03 0.368336771276E-08 0.238200915871E+01
   -0.816397368908E-05 0.169567682315E-01 0.777095556259E-05 0.515377895546E+04
    0.468000000000E+06 0.264495611191E-06 0.298176825510E+01-0.465661287308E-07
    0.980771185948E+00 0.238625000000E+03 0.151154172384E+01-0.746888253751E-08
   -0.156077929844E-09 0.100000000000E+01 0.158100000000E+04 0.000000000000E+00
    0.200000000000E+01 0.000000000000E+00-0.558793544769E-08 0.810000000000E+02
    0.460818000000E+06 0.400000000000E+01 0.000000000000E+00 0.000000000000E+00
10 10  4 30 10  0  0.0-0.415197573602E-04-0.909494701773E-12 0.000000000000E+00
    0.280000000000E+02 0.140218750000E+03 0.458090509880E-08 0.384484714760E-01
    0.742264091969E-05 0.916857540142E-02 0.691972672939E-05 0.515350190544E+04
    0.468000000000E+06 0.633299350738E-07 0.937966300964E+00 0.130385160446E-06
    0.953834639201E+00 0.239312500000E+03 0.666068768072E+00-0.827677333226E-08
    0.546451333320E-10 0.100000000000E+01 0.158100000000E+04 0.000000000000E+00
    0.200000000000E+01 0.000000000000E+00-0.279396772385E-08 0.280000000000E+02
    0.462288000000E+06 0.400000000000E+01 0.000000000000E+00 0.000000000000E+00
11 10  4 30 10  0  0.0-0.596279278398E-04-0.227373675443E-11 0.000000000000E+00
    0.129000000000E+03-0.223750000000E+02 0.626776107741E-08 0.299426883010E+01
   -0.127404928207E-05 0.105932995211E-01 0.864453613758E-05 0.515373765183E+04
    0.468000000000E+06-0.838190317154E-07-0.364174866534E+00-0.176951289177E-06
    0.888698723743E+00 0.172531250000E+03 0.801649550642E+00-0.856999983203E-08
   -0.605025201728E-09 0.100000000000E+01 0.158100000000E+04 0.000000000000E+00
    0.200000000000E+01 0.000000000000E+00-0.116415321827E-07 0.129000000000E+03
    0.460800000000E+06 0.000000000000E+00 0.000000000000E+00 0.000000000000E+00
13 10  4 30 10  0  0.0 0.304891727865E-03-0.341060513165E-12 0.000000000000E+00
    0.280000000000E+02-0.188750000000E+02 0.397195116199E-08-0.656225463796E+00
   -0.100396573544E-05 0.443017086945E-02 0.923871994019E-06 0.515355200577E+04
    0.468000000000E+06-0.298023223877E-07 0.203126957382E+01 0.689178705216E-07
    0.992788901437E+00 0.379406250000E+03 0.167502931163E+01-0.813783897366E-08
   -0.864321716755E-10 0.100000000000E+01 0.158100000000E+04 0.000000000000E+00
    0.200000000000E+01 0.000000000000E+00-0.107102096081E-07 0.280000000000E+02
    0.460800000000E+06 0.000000000000E+00 0.000000000000E+00 0.000000000000E+00
14 10  4 30 10  0  0.0 0.400342978537E-04 0.443378667114E-11 0.000000000000E+00
    0.110000000000E+02-0.106875000000E+02 0.421267554174E-08-0.845556868746E+00
   -0.571832060814E-06 0.497884221841E-02 0.525265932083E-06 0.515373239136E+04
    0.468000000000E+06 0.558793544769E-08 0.200963533562E+01 0.156462192535E-06
    0.986061235237E+00 0.383656250000E+03-0.212500905459E+01-0.832677571339E-08
   -0.140005826377E-09 0.100000000000E+01 0.158100000000E+04 0.000000000000E+00
    0.200000000000E+01 0.000000000000E+00-0.884756445885E-08 0.110000000000E+02
    0.460818000000E+06 0.400000000000E+01 0.000000000000E+00 0.000000000000E+00
15 10  4 30 10  0  0.0-0.279827043414E-03 0.522959453519E-11 0.000000000000E+00
    0.720000000000E+02-0.134375000000E+01 0.483948747743E-08-0.951868875216E+00
   -0.558793544769E-07 0.247405353002E-02-0.318512320519E-06 0.515375183296E+04
    0.468000000000E+06-0.540167093277E-07 0.194640640263E+01-0.117346644402E-06
    0.953676859098E+00 0.383593750000E+03-0.172166207391E+00-0.859535820297E-08
   -0.871464844732E-10 0.100000000000E+01 0.158100000000E+04 0.000000000000E+00
    0.200000000000E+01 0.000000000000E+00-0.977888703346E-08 0.720000000000E+02
    0.460800000000E+06 0.000000000000E+00 0.000000000000E+00 0.000000000000E+00
16 10  4 30 10  0  0.0-0.667255371809E-04-0.386535248253E-11 0.000000000000E+00
    0.810000000000E+02-0.119375000000E+02 0.417053086221E-08 0.804643555857E+00
   -0.560656189918E-06 0.591343699489E-02 0.945478677750E-05 0.515375432587E+04
    0.468000000000E+06 0.152736902237E-06-0.219951830165E+01-0.372529029846E-08
    0.971668668277E+00 0.202406250000E+03-0.242283876782E+00-0.772853621027E-08
    0.617525722425E-09 0.100000000000E+01 0.158100000000E+04 0.000000000000E+00
    0.200000000000E+01 0.000000000000E+00-0.977888703346E-08 0.810000000000E+02
    0.460800000000E+06 0.000000000000E+00 0.000000000000E+00 0.000000000000E+00
17 10  4 30 10  0  0.0 0.147703569382E-03 0.250111042988E-11 0.000000000000E+00
    0.940000000000E+02-0.884375000000E+01 0.516807241382E-08-0.414453153375E+00
   -0.368803739548E-06 0.538586569019E-02 0.506825745106E-05 0.515358406639E+04
    0.468000000000E+06-0.186264514923E-08-0.115613445158E+01 0.838190317154E-07
    0.959764007098E+00 0.282250000000E+03-0.251693917241E+01-0.825498671047E-08
   -0.417874549009E-10 0.100000000000E+01 0.158100000000E+04 0.000000000000E+00
    0.200000000000E+01 0.000000000000E+00-0.102445483208E-07 0.940000000000E+02
    0.460818000000E+06 0.400000000000E+01 0.000000000000E+00 0.000000000000E+00
18 10  4 30 10  0  0.0 0.651869922876E-04 0.250111042988E-11 0.000000000000E+00
    0.250000000000E+02 0.143687500000E+03 0.486734563765E-08 0.106574984282E+01
    0.763125717640E-05 0.112311337143E-01 0.801123678684E-05 0.515369800186E+04
    0.468000000000E+06-0.115483999252E-06 0.938313366575E+00 0.102445483208E-06
    0.937817320313E+00 0.214156250000E+03-0.234269947175E+01-0.845749514866E-08
   -0.496449235887E-10 0.100000000000E+01 0.158100000000E+04 0.000000000000E+00
    0.200000000000E+01 0.000000000000E+00-0.107102096081E-07 0.250000000000E+02
    0.460800000000E+06 0.000000000000E+00 0.000000000000E+00 0.000000000000E+00
19 10  4 30 10  0  0.0-0.315993092954E-04-0.261479726760E-11 0.000000000000E+00
    0.500000000000E+02-0.987500000000E+01 0.516378652101E-08-0.102830944186E+01
   -0.672414898872E-06 0.642120675184E-02 0.512227416038E-05 0.515371647072E+04
    0.468000000000E+06 0.353902578354E-07-0.110100622704E+01-0.726431608200E-07
    0.957423319153E+00 0.277625000000E+03-0.167538307009E+00-0.828427364468E-08
    0.142863093678E-10 0.100000000000E+01 0.158100000000E+04 0.000000000000E+00
    0.200000000000E+01 0.000000000000E+00-0.149011611938E-07 0.500000000000E+02
    0.460800000000E+06 0.000000000000E+00 0.000000000000E+00 0.000000000000E+00
21 10  4 30 10  0  0.0-0.569233670831E-04-0.261479726760E-11 0.000000000000E+00
    0.260000000000E+02 0.809375000000E+01 0.510092679207E-08 0.217190577703E+01
    0.286847352982E-06 0.164301721379E-01 0.111572444439E-04 0.515368547821E+04
    0.468000000000E+06-0.372529029846E-06-0.118243415644E+00-0.236555933952E-06
    0.933079273903E+00 0.154250000000E+03-0.249242223804E+01-0.804676414390E-08
   -0.622168760955E-09 0.100000000000E+01 0.158100000000E+04 0.000000000000E+00
    0.200000000000E+01 0.000000000000E+00-0.121071934700E-07 0.260000000000E+02
    0.460800000000E+06 0.000000000000E+00 0.000000000000E+00 0.000000000000E+00
22 10  4 30 10  0  0.0 0.173288863152E-03-0.909494701773E-12 0.000000000000E+00
    0.720000000000E+02 0.142968750000E+03 0.497627871055E-08 0.115703773767E+00
    0.757537782192E-05 0.520389853045E-02 0.731460750103E-05 0.515366470146E+04
    0.468000000000E+06-0.447034835815E-07 0.943281295932E+00 0.260770320892E-07
    0.935494317585E+00 0.223812500000E+03-0.192933971213E+01-0.844499462507E-08
    0.507163982558E-10 0.100000000000E+01 0.158100000000E+04 0.000000000000E+00
    0.400000000000E+01 0.000000000000E+00-0.176951289177E-07 0.720000000000E+02
    0.460800000000E+06 0.000000000000E+00 0.000000000000E+00 0.000000000000E+00
